STARLINK-31677          
1 59749U 24090V   26068.40600894 -.00000535  00000+0 -99111-5 0  9992
2 59749  43.0056 185.3642 0000871 253.7432 106.3324 15.27575537103386
OTTER                   
1 62623U 25009Q   26068.72300813  .00012198  00000+0  45151-3 0  9990
2 62623  97.4065 151.3812 0003573 310.7710  49.3219 15.27809545 63722
