[{"OBJECT_NAME":"STARLINK-31677","OBJECT_ID":"2024-090V","EPOCH":"2026-03-09T09:44:39.172416","MEAN_MOTION":15.27575537,"ECCENTRICITY":8.716e-5,"INCLINATION":43.0056,"RA_OF_ASC_NODE":185.3642,"ARG_OF_PERICENTER":253.7432,"MEAN_ANOMALY":106.3324,"EPHEMERIS_TYPE":0,"CLASSIFICATION_TYPE":"U","NORAD_CAT_ID":59749,"ELEMENT_SET_NO":999,"REV_AT_EPOCH":10338,"BSTAR":-9.911148e-6,"MEAN_MOTION_DOT":-5.35e-6,"MEAN_MOTION_DDOT":0},{"OBJECT_NAME":"OTTER","OBJECT_ID":"2025-009Q","EPOCH":"2026-03-09T17:21:07.902432","MEAN_MOTION":15.27809545,"ECCENTRICITY":0.00035728,"INCLINATION":97.4065,"RA_OF_ASC_NODE":151.3812,"ARG_OF_PERICENTER":310.771,"MEAN_ANOMALY":49.3219,"EPHEMERIS_TYPE":0,"CLASSIFICATION_TYPE":"U","NORAD_CAT_ID":62623,"ELEMENT_SET_NO":999,"REV_AT_EPOCH":6372,"BSTAR":0.00045151206,"MEAN_MOTION_DOT":0.00012198,"MEAN_MOTION_DDOT":0}]
